ONEWEB-0311             
1 49097U 21075Y   25209.68362313  .00000155  00000+0  36529-3 0  9992
2 49097  87.9032  70.2473 0001492  93.3667 266.7635 13.17648719192029
ONEWEB-0312             
1 49098U 21075Z   25209.62288988  .00000038  00000+0  63750-4 0  9999
2 49098  87.9034  70.2906 0001392  80.8683 279.2606 13.17649240190992
ONEWEB-0313             
1 49099U 21075AA  25209.62780371  .00000052  00000+0  10038-3 0  9999
2 49099  87.9029  70.3042 0001770  87.0477 273.0857 13.17650316190984
ONEWEB-0314             
1 49100U 21075AB  25209.59420646  .00000051  00000+0  98873-4 0  9997
2 49100  87.9037  70.2434 0001390  83.7096 276.4194 13.17649278190951
ONEWEB-0315             
1 49101U 21075AC  25209.58262704 -.00000052  00000+0 -18131-3 0  9997
2 49101  87.8852  54.9788 0001672  98.7379 261.3939 13.12442012192729
ONEWEB-0316             
1 49102U 21075AD  25209.54559588  .00000066  00000+0  13344-3 0  9997
2 49102  87.9123  39.7583 0001806  96.0702 264.0635 13.18686614194556
ONEWEB-0317             
1 49103U 21075AE  25209.57613974  .00000169  00000+0  43355-3 0  9990
2 49103  87.8849  54.9953 0002008  61.5999 298.5332 13.12442204192745
ONEWEB-0318             
1 49104U 21075AF  25210.07343083 -.00000055  00000+0 -17173-3 0  9994
2 49104  87.9125  39.6390 0001740  96.9573 263.1757 13.18686890195582
ONEWEB-0319             
1 49105U 21075AG  25209.68531959  .00000088  00000+0  19415-3 0  9996
2 49105  87.9036  70.2717 0001499  95.5732 264.5570 13.17650269191990
ONEWEB-0323             
1 49106U 21075AH  25209.87135501  .00000406  00000+0  10928-2 0  9994
2 49106  87.8848  54.9221 0001366 108.7867 251.3409 13.12441597193140
ONEWEB-0329             
1 49107U 21075AJ  25209.61781144  .00000053  00000+0  10241-3 0  9994
2 49107  87.9033  70.2899 0001531  86.8459 273.2848 13.17649421190976
ONEWEB-0330             
1 49108U 21075AK  25209.84682360  .00000010  00000+0 -85769-5 0  9993
2 49108  87.9030  70.2465 0001511  78.4287 281.7014 13.17726495192032
ONEWEB-0292             
1 49186U 21083A   25209.48696154  .00000283  00000+0  73912-3 0  9990
2 49186  87.8966  24.5746 0001751  97.0681 263.0647 13.13468850188438
ONEWEB-0303             
1 49187U 21083B   25210.07011491 -.00000039  00000+0 -13130-3 0  9990
2 49187  87.9124  39.6405 0001725  94.9076 265.2253 13.18684602188673
ONEWEB-0306             
1 49188U 21083C   25209.75671202  .00000036  00000+0  58345-4 0  9999
2 49188  87.9125  39.6884 0001897  82.8024 277.3323 13.18684888188673
ONEWEB-0307             
1 49189U 21083D   25209.55722815  .00000487  00000+0  12980-2 0  9998
2 49189  87.8952  24.5641 0001698  80.6266 279.5055 13.13466155188449
ONEWEB-0320             
1 49190U 21083E   25209.76331599  .00000004  00000+0 -22482-4 0  9994
2 49190  87.9123  39.7158 0001777  89.3793 270.7543 13.18686202188630
